IRIDIUM 36 [-]          
1 24967U 97056C   23299.40113303  .00000725  00000+0  24055-3 0  9997
2 24967  86.3964  64.8047 0002203  96.6195 263.5253 14.36470590366086
IRIDIUM 39 [-]          
1 25042U 97069D   23299.55867990  .00001003  00000+0  26716-3 0  9996
2 25042  86.3871 107.9522 0019647 141.8479 218.4119 14.47439417362174
IRIDIUM 38 [-]          
1 25043U 97069E   23299.62231217  .00000580  00000+0  18928-3 0  9997
2 25043  86.3925 125.2258 0000513   2.2491 357.8708 14.36929528359825
IRIDIUM 42 [-]          
1 25077U 97077A   23299.60710708  .00000510  00000+0  17150-3 0  9997
2 25077  86.3938 130.6714 0001458  84.0683 276.0679 14.35241778355168
IRIDIUM 44 [-]          
1 25078U 97077B   23299.56377081  .00000651  00000+0  20464-3 0  9994
2 25078  86.3912 114.2230 0002316 139.4965 220.6406 14.39034116357439
IRIDIUM 45 [-]          
1 25104U 97082A   23299.58655958  .00010481  00000+0  67049-3 0  9996
2 25104  86.3766 331.7821 0178559   9.3258 351.1211 14.96137604361709
IRIDIUM 24 [-]          
1 25105U 97082B   23299.59275310  .00000603  00000+0  18240-3 0  9992
2 25105  86.3915 334.2130 0009383 253.7376 106.2792 14.40793654356845
IRIDIUM 51 [-]          
1 25262U 98018A   23299.57002904  .00011910  00000+0  66012-3 0  9994
2 25262  86.3951 342.2860 0162218 323.3038  35.7171 15.03024202356083
